start=new Date('2023-06-13T00:00:00.000Z').valueOf();
sats=[{"BSTAR":"0.00085849000000","RCS_SIZE":"LARGE","LAUNCH_DATE":"2020-01-29","EPHEMERIS_TYPE":"0","REV_AT_EPOCH":"18617","OBJECT_NAME":"STARLINK-1179","SEMIMAJOR_AXIS":"6925.290","NORAD_CAT_ID":"45085","COUNTRY_CODE":"US","DECAY_DATE":null,"APOAPSIS":"547.630","MEAN_MOTION_DOT":"0.00012535","CENTER_NAME":"EARTH","PERIAPSIS":"546.679","TLE_LINE2":"2 45085  53.0549  59.5620 0000687  98.3927 261.7140 15.06419223186173","RA_OF_ASC_NODE":"59.5620","MEAN_ANOMALY":"261.7140","ARG_OF_PERICENTER":"98.3927","CLASSIFICATION_TYPE":"U","ECCENTRICITY":"0.00006870","FILE":"3931605","SITE":"AFETR","TLE_LINE1":"1 45085U 20006AT  23163.84895534  .00012535  00000-0  85849-3 0  9994","PERIOD":"95.591","REF_FRAME":"TEME","TIME_SYSTEM":"UTC","MEAN_MOTION":"15.06419223","OBJECT_TYPE":"PAYLOAD","MEAN_MOTION_DDOT":"0.0000000000000","OBJECT_ID":"2020-006AT","INCLINATION":"53.0549","EPOCH":"2023-06-12T20:22:29.741376","MEAN_ELEMENT_THEORY":"SGP4","GP_ID":"233796855","ELEMENT_SET_NO":"999"},{"NORAD_CAT_ID":"45087","APOAPSIS":"547.922","DECAY_DATE":null,"COUNTRY_CODE":"US","REV_AT_EPOCH":"18611","OBJECT_NAME":"STARLINK-1185","SEMIMAJOR_AXIS":"6925.313","BSTAR":"0.00080805000000","EPHEMERIS_TYPE":"0","LAUNCH_DATE":"2020-01-29","RCS_SIZE":"LARGE","ARG_OF_PERICENTER":"86.0410","RA_OF_ASC_NODE":"61.4170","TLE_LINE2":"2 45087  53.0538  61.4170 0001074  86.0410 274.0702 15.06411580186110","MEAN_ANOMALY":"274.0702","CENTER_NAME":"EARTH","PERIAPSIS":"546.434","MEAN_MOTION_DOT":"0.00011779","MEAN_MOTION":"15.06411580","REF_FRAME":"TEME","TIME_SYSTEM":"UTC","TLE_LINE1":"1 45087U 20006AV  23163.43613347  .00011779  00000-0  80805-3 0  9997","PERIOD":"95.591","FILE":"3931287","ECCENTRICITY":"0.00010740","CLASSIFICATION_TYPE":"U","SITE":"AFETR","ELEMENT_SET_NO":"999","GP_ID":"233763806","INCLINATION":"53.0538","OBJECT_ID":"2020-006AV","MEAN_MOTION_DDOT":"0.0000000000000","MEAN_ELEMENT_THEORY":"SGP4","EPOCH":"2023-06-12T10:28:01.931808","OBJECT_TYPE":"PAYLOAD"},{"GP_ID":"233797857","ELEMENT_SET_NO":"999","OBJECT_TYPE":"PAYLOAD","OBJECT_ID":"2020-006AW","MEAN_MOTION_DDOT":"0.0000000000000","INCLINATION":"53.0548","EPOCH":"2023-06-12T14:10:57.939168","MEAN_ELEMENT_THEORY":"SGP4","REF_FRAME":"TEME","TIME_SYSTEM":"UTC","MEAN_MOTION":"15.06409369","CLASSIFICATION_TYPE":"U","ECCENTRICITY":"0.00011280","FILE":"3931605","SITE":"AFETR","PERIOD":"95.592","TLE_LINE1":"1 45088U 20006AW  23163.59094837  .00006855  00000-0  47855-3 0  9999","TLE_LINE2":"2 45088  53.0548  60.7256 0001128  91.2410 268.8708 15.06409369186138","RA_OF_ASC_NODE":"60.7256","MEAN_ANOMALY":"268.8708","ARG_OF_PERICENTER":"91.2410","MEAN_MOTION_DOT":"0.00006855","CENTER_NAME":"EARTH","PERIAPSIS":"546.404","NORAD_CAT_ID":"45088","COUNTRY_CODE":"US","APOAPSIS":"547.966","DECAY_DATE":null,"BSTAR":"0.00047855000000","RCS_SIZE":"LARGE","LAUNCH_DATE":"2020-01-29","EPHEMERIS_TYPE":"0","REV_AT_EPOCH":"18613","OBJECT_NAME":"STARLINK-1183","SEMIMAJOR_AXIS":"6925.320"},{"LAUNCH_DATE":"2020-01-29","EPHEMERIS_TYPE":"0","RCS_SIZE":"LARGE","BSTAR":"0.00013702000000","SEMIMAJOR_AXIS":"6925.362","OBJECT_NAME":"STARLINK-1136","REV_AT_EPOCH":"18614","DECAY_DATE":null,"APOAPSIS":"548.175","COUNTRY_CODE":"US","NORAD_CAT_ID":"45089","MEAN_MOTION_DOT":"0.00001760","PERIAPSIS":"546.280","CENTER_NAME":"EARTH","MEAN_ANOMALY":"273.2901","RA_OF_ASC_NODE":"60.7762","TLE_LINE2":"2 45089  53.0545  60.7762 0001368  86.8244 273.2901 15.06395528186146","ARG_OF_PERICENTER":"86.8244","SITE":"AFETR","ECCENTRICITY":"0.00013680","FILE":"3931605","CLASSIFICATION_TYPE":"U","TLE_LINE1":"1 45089U 20006AX  23163.59832562  .00001760  00000-0  13702-3 0  9999","PERIOD":"95.592","TIME_SYSTEM":"UTC","REF_FRAME":"TEME","MEAN_MOTION":"15.06395528","OBJECT_TYPE":"PAYLOAD","MEAN_ELEMENT_THEORY":"SGP4","EPOCH":"2023-06-12T14:21:35.333568","INCLINATION":"53.0545","MEAN_MOTION_DDOT":"0.0000000000000","OBJECT_ID":"2020-006AX","GP_ID":"233798102","ELEMENT_SET_NO":"999"},{"MEAN_MOTION":"15.06392236","TIME_SYSTEM":"UTC","REF_FRAME":"TEME","PERIOD":"95.593","TLE_LINE1":"1 45090U 20006AY  23163.84065070  .00003805  00000-0  27425-3 0  9990","SITE":"AFETR","FILE":"3931605","ECCENTRICITY":"0.00012820","CLASSIFICATION_TYPE":"U","ELEMENT_SET_NO":"999","GP_ID":"233797355","MEAN_ELEMENT_THEORY":"SGP4","EPOCH":"2023-06-12T20:10:32.220480","INCLINATION":"53.0542","MEAN_MOTION_DDOT":"0.0000000000000","OBJECT_ID":"2020-006AY","OBJECT_TYPE":"PAYLOAD","DECAY_DATE":null,"APOAPSIS":"548.125","COUNTRY_CODE":"US","NORAD_CAT_ID":"45090","SEMIMAJOR_AXIS":"6925.372","OBJECT_NAME":"STARLINK-1176","REV_AT_EPOCH":"18617","LAUNCH_DATE":"2020-01-29","EPHEMERIS_TYPE":"0","RCS_SIZE":"LARGE","BSTAR":"0.00027425000000","ARG_OF_PERICENTER":"92.6739","MEAN_ANOMALY":"267.4397","RA_OF_ASC_NODE":"59.5907","TLE_LINE2":"2 45090  53.0542  59.5907 0001282  92.6739 267.4397 15.06392236186171","PERIAPSIS":"546.350","CENTER_NAME":"EARTH","MEAN_MOTION_DOT":"0.00003805"},{"MEAN_ANOMALY":"268.0732","RA_OF_ASC_NODE":"59.7126","TLE_LINE2":"2 45092  53.0547  59.7126 0001062  92.0379 268.0732 15.06388801186165","ARG_OF_PERICENTER":"92.0379","MEAN_MOTION_DOT":"-0.00002858","PERIAPSIS":"546.512","CENTER_NAME":"EARTH","DECAY_DATE":null,"APOAPSIS":"547.983","COUNTRY_CODE":"US","NORAD_CAT_ID":"45092","EPHEMERIS_TYPE":"0","LAUNCH_DATE":"2020-01-29","RCS_SIZE":"LARGE","BSTAR":"-0.00017308000000","SEMIMAJOR_AXIS":"6925.383","REV_AT_EPOCH":"18616","OBJECT_NAME":"STARLINK-1137","GP_ID":"233797605","ELEMENT_SET_NO":"999","OBJECT_TYPE":"PAYLOAD","MEAN_ELEMENT_THEORY":"SGP4","EPOCH":"2023-06-12T19:34:44.199840","INCLINATION":"53.0547","MEAN_MOTION_DDOT":"0.0000000000000","OBJECT_ID":"2020-006BA","TIME_SYSTEM":"UTC","REF_FRAME":"TEME","MEAN_MOTION":"15.06388801","SITE":"AFETR","ECCENTRICITY":"0.00010620","FILE":"3931605","CLASSIFICATION_TYPE":"U","PERIOD":"95.593","TLE_LINE1":"1 45092U 20006BA  23163.81578935 -.00002858  00000-0 -17308-3 0  9996"},{"ELEMENT_SET_NO":"999","GP_ID":"233798357","INCLINATION":"53.0552","OBJECT_ID":"2020-006BB","MEAN_MOTION_DDOT":"0.0000000000000","MEAN_ELEMENT_THEORY":"SGP4","EPOCH":"2023-06-12T19:29:25.349280","OBJECT_TYPE":"PAYLOAD","MEAN_MOTION":"15.06407497","REF_FRAME":"TEME","TIME_SYSTEM":"UTC","PERIOD":"95.592","TLE_LINE1":"1 45093U 20006BB  23163.81209895  .00007752  00000-0  53861-3 0  9993","ECCENTRICITY":"0.00011640","FILE":"3931605","CLASSIFICATION_TYPE":"U","SITE":"AFETR","ARG_OF_PERICENTER":"83.5289","RA_OF_ASC_NODE":"59.7358","TLE_LINE2":"2 45093  53.0552  59.7358 0001164  83.5289 276.5832 15.06407497186165","MEAN_ANOMALY":"276.5832","CENTER_NAME":"EARTH","PERIAPSIS":"546.384","MEAN_MOTION_DOT":"0.00007752","NORAD_CAT_ID":"45093","APOAPSIS":"547.997","DECAY_DATE":null,"COUNTRY_CODE":"US","OBJECT_NAME":"STARLINK-1142","REV_AT_EPOCH":"18616","SEMIMAJOR_AXIS":"6925.326","BSTAR":"0.00053861000000","LAUNCH_DATE":"2020-01-29","EPHEMERIS_TYPE":"0","RCS_SIZE":"LARGE"},{"MEAN_ELEMENT_THEORY":"SGP4","EPOCH":"2023-06-12T19:49:17.963904","INCLINATION":"53.0544","OBJECT_ID":"2020-006BC","MEAN_MOTION_DDOT":"0.0000000000000","OBJECT_TYPE":"PAYLOAD","ELEMENT_SET_NO":"999","GP_ID":"233798602","TLE_LINE1":"1 45094U 20006BC  23163.82590236  .00019143  00000-0  13007-2 0  9991","PERIOD":"95.592","SITE":"AFETR","FILE":"3931605","ECCENTRICITY":"0.00013280","CLASSIFICATION_TYPE":"U","MEAN_MOTION":"15.06396193","TIME_SYSTEM":"UTC","REF_FRAME":"TEME","PERIAPSIS":"546.306","CENTER_NAME":"EARTH","MEAN_MOTION_DOT":"0.00019143","ARG_OF_PERICENTER":"88.2533","MEAN_ANOMALY":"271.8608","RA_OF_ASC_NODE":"59.6596","TLE_LINE2":"2 45094  53.0544  59.6596 0001328  88.2533 271.8608 15.06396193186176","SEMIMAJOR_AXIS":"6925.360","OBJECT_NAME":"STARLINK-1146","REV_AT_EPOCH":"18617","LAUNCH_DATE":"2020-01-29","EPHEMERIS_TYPE":"0","RCS_SIZE":"LARGE","BSTAR":"0.00130070000000","DECAY_DATE":null,"APOAPSIS":"548.145","COUNTRY_CODE":"US","NORAD_CAT_ID":"45094"},{"GP_ID":"233796856","ELEMENT_SET_NO":"999","OBJECT_TYPE":"PAYLOAD","INCLINATION":"53.0542","OBJECT_ID":"2020-006BD","MEAN_MOTION_DDOT":"0.0000000000000","MEAN_ELEMENT_THEORY":"SGP4","EPOCH":"2023-06-12T19:54:36.999360","REF_FRAME":"TEME","TIME_SYSTEM":"UTC","MEAN_MOTION":"15.06387473","ECCENTRICITY":"0.00015100","FILE":"3931605","CLASSIFICATION_TYPE":"U","SITE":"AFETR","TLE_LINE1":"1 45095U 20006BD  23163.82959490  .00010273  00000-0  70781-3 0  9991","PERIOD":"95.593","RA_OF_ASC_NODE":"59.6451","TLE_LINE2":"2 45095  53.0542  59.6451 0001510 103.0767 257.0391 15.06387473186179","MEAN_ANOMALY":"257.0391","ARG_OF_PERICENTER":"103.0767","MEAN_MOTION_DOT":"0.00010273","CENTER_NAME":"EARTH","PERIAPSIS":"546.206","NORAD_CAT_ID":"45095","APOAPSIS":"548.298","DECAY_DATE":null,"COUNTRY_CODE":"US","BSTAR":"0.00070781000000","LAUNCH_DATE":"2020-01-29","EPHEMERIS_TYPE":"0","RCS_SIZE":"LARGE","OBJECT_NAME":"STARLINK-1147","REV_AT_EPOCH":"18617","SEMIMAJOR_AXIS":"6925.387"},{"SEMIMAJOR_AXIS":"6925.384","OBJECT_NAME":"STARLINK-1152","REV_AT_EPOCH":"18616","RCS_SIZE":"LARGE","LAUNCH_DATE":"2020-01-29","EPHEMERIS_TYPE":"0","BSTAR":"-0.00035116000000","COUNTRY_CODE":"US","APOAPSIS":"548.062","DECAY_DATE":null,"NORAD_CAT_ID":"45096","PERIAPSIS":"546.437","CENTER_NAME":"EARTH","MEAN_MOTION_DOT":"-0.00005506","ARG_OF_PERICENTER":"93.6323","MEAN_ANOMALY":"266.4800","TLE_LINE2":"2 45096  53.0544  59.6848 0001173  93.6323 266.4800 15.06388343186164","RA_OF_ASC_NODE":"59.6848","PERIOD":"95.593","TLE_LINE1":"1 45096U 20006BE  23163.82316034 -.00005506  00000-0 -35116-3 0  9991","SITE":"AFETR","CLASSIFICATION_TYPE":"U","ECCENTRICITY":"0.00011730","FILE":"3931605","MEAN_MOTION":"15.06388343","TIME_SYSTEM":"UTC","REF_FRAME":"TEME","EPOCH":"2023-06-12T19:45:21.053376","MEAN_ELEMENT_THEORY":"SGP4","OBJECT_ID":"2020-006BE","MEAN_MOTION_DDOT":"0.0000000000000","INCLINATION":"53.0544","OBJECT_TYPE":"PAYLOAD","ELEMENT_SET_NO":"999","GP_ID":"233797106"}];
